SWAS                    
1 25560U 98071A   26068.53487068  .00004636  00000+0  29986-3 0  9991
2 25560  69.8952 124.3662 0004099  14.3215 345.8065 15.08888192482231
STARLINK-5413           
1 54808U 22175BC  26068.06012754  .00000092  00000+0  23896-4 0  9991
2 54808  53.2183  17.1182 0001462  89.8611 270.2549 15.08838431180240
